[{"OBJECT_NAME":"STARLINK-1434","OBJECT_ID":"2020-035BH","EPOCH":"2026-03-09T05:47:35.213856","MEAN_MOTION":15.26724568,"ECCENTRICITY":0.00053438,"INCLINATION":53.0547,"RA_OF_ASC_NODE":22.1128,"ARG_OF_PERICENTER":88.04,"MEAN_ANOMALY":272.121,"EPHEMERIS_TYPE":0,"CLASSIFICATION_TYPE":"U","NORAD_CAT_ID":45712,"ELEMENT_SET_NO":999,"REV_AT_EPOCH":31932,"BSTAR":0.0020295208,"MEAN_MOTION_DOT":0.00054112,"MEAN_MOTION_DDOT":0},{"OBJECT_NAME":"STARLINK-32804","OBJECT_ID":"2025-019T","EPOCH":"2026-03-09T10:45:52.428672","MEAN_MOTION":15.2759978,"ECCENTRICITY":0.00028227,"INCLINATION":43.0083,"RA_OF_ASC_NODE":90.3825,"ARG_OF_PERICENTER":284.4195,"MEAN_ANOMALY":75.6344,"EPHEMERIS_TYPE":0,"CLASSIFICATION_TYPE":"U","NORAD_CAT_ID":62846,"ELEMENT_SET_NO":999,"REV_AT_EPOCH":6221,"BSTAR":0.00083860627,"MEAN_MOTION_DOT":0.00022901,"MEAN_MOTION_DDOT":0}]
